{
  "type": "FeatureCollection",
  "features": [
    {
      "type": "Feature",
      "properties": {
        "norad_id": 67000,
        "name": "2025-292H",
        "group": "last-30-days",
        "lat": -63.96202037972622,
        "lon": -135.79316855673332,
        "alt_km": 550.7216494686118,
        "timestamp": "2025-12-13T15:35:10.879413+00:00",
        "meta_object_name": "2025-292H",
        "meta_object_id": "2025-292H",
        "meta_epoch": "2025-12-11T21:00:30.464640",
        "meta_mean_motion": 15.04864273,
        "meta_eccentricity": 0.0014339,
        "meta_inclination": 97.6576,
        "meta_ra_of_asc_node": 58.4335,
        "meta_arg_of_pericenter": 283.4517,
        "meta_mean_anomaly": 76.5111,
        "meta_ephemeris_type": 0,
        "meta_classification_type": "U",
        "meta_norad_cat_id": 67000,
        "meta_element_set_no": 999,
        "meta_rev_at_epoch": 13,
        "meta_bstar": 0.00023206,
        "meta_mean_motion_dot": 3.225e-05,
        "meta_mean_motion_ddot": 0,
        "tle_line1": "1 67000U 25292H   25345.87535260  .00003225  00000+0  23206-3 0  9995",
        "tle_line2": "2 67000  97.6576  58.4335 0014339 283.4517  76.5111 15.04864273   138"
      },
      "geometry": {
        "type": "Point",
        "coordinates": [
          -135.79316855673332,
          -63.96202037972622
        ]
      }
    },
    {
      "type": "Feature",
      "properties": {
        "norad_id": 67001,
        "name": "2025-292J",
        "group": "last-30-days",
        "lat": -57.10516982245658,
        "lon": -131.813502502592,
        "alt_km": 551.9257139851461,
        "timestamp": "2025-12-13T15:35:10.879423+00:00",
        "meta_object_name": "2025-292J",
        "meta_object_id": "2025-292J",
        "meta_epoch": "2025-12-13T00:09:48.229344",
        "meta_mean_motion": 15.04305175,
        "meta_eccentricity": 0.00143373,
        "meta_inclination": 97.657,
        "meta_ra_of_asc_node": 59.5551,
        "meta_arg_of_pericenter": 267.9179,
        "meta_mean_anomaly": 92.0405,
        "meta_ephemeris_type": 0,
        "meta_classification_type": "U",
        "meta_norad_cat_id": 67001,
        "meta_element_set_no": 999,
        "meta_rev_at_epoch": 43,
        "meta_bstar": 0.0006449792,
        "meta_mean_motion_dot": 8.947e-05,
        "meta_mean_motion_ddot": 0,
        "tle_line1": "1 67001U 25292J   25347.00680821  .00008947  00000+0  64498-3 0  9991",
        "tle_line2": "2 67001  97.6570  59.5551 0014337 267.9179  92.0405 15.04305175   437"
      },
      "geometry": {
        "type": "Point",
        "coordinates": [
          -131.813502502592,
          -57.10516982245658
        ]
      }
    },
    {
      "type": "Feature",
      "properties": {
        "norad_id": 67002,
        "name": "ZK-1A R/B",
        "group": "last-30-days",
        "lat": 38.86615233639456,
        "lon": -113.21877073227915,
        "alt_km": 508.60638938696593,
        "timestamp": "2025-12-13T15:35:10.879433+00:00",
        "meta_object_name": "ZK-1A R/B",
        "meta_object_id": "2025-292K",
        "meta_epoch": "2025-12-12T23:32:42.568800",
        "meta_mean_motion": 15.5461418,
        "meta_eccentricity": 0.02202413,
        "meta_inclination": 97.724,
        "meta_ra_of_asc_node": 59.7794,
        "meta_arg_of_pericenter": 5.1197,
        "meta_mean_anomaly": 355.2233,
        "meta_ephemeris_type": 0,
        "meta_classification_type": "U",
        "meta_norad_cat_id": 67002,
        "meta_element_set_no": 999,
        "meta_rev_at_epoch": 43,
        "meta_bstar": 0.0010305431,
        "meta_mean_motion_dot": 0.00208383,
        "meta_mean_motion_ddot": 1.3309637e-05,
        "tle_line1": "1 67002U 25292K   25346.98104825  .00208383  13310-4  10305-2 0  9999",
        "tle_line2": "2 67002  97.7240  59.7794 0220241   5.1197 355.2233 15.54614180   436"
      },
      "geometry": {
        "type": "Point",
        "coordinates": [
          -113.21877073227915,
          38.86615233639456
        ]
      }
    },
    {
      "type": "Feature",
      "properties": {
        "norad_id": 67059,
        "name": "HULIANWANG DIGUI 16A",
        "group": "last-30-days",
        "lat": 0.5382262580087075,
        "lon": -172.04658043934649,
        "alt_km": 803.2187052061863,
        "timestamp": "2025-12-13T15:35:10.879443+00:00",
        "meta_object_name": "HULIANWANG DIGUI 16A",
        "meta_object_id": "2025-295A",
        "meta_epoch": "2025-12-12T05:06:27.347328",
        "meta_mean_motion": 14.25879966,
        "meta_eccentricity": 0.00136284,
        "meta_inclination": 50.0035,
        "meta_ra_of_asc_node": 14.4753,
        "meta_arg_of_pericenter": 247.7813,
        "meta_mean_anomaly": 112.1656,
        "meta_ephemeris_type": 0,
        "meta_classification_type": "U",
        "meta_norad_cat_id": 67059,
        "meta_element_set_no": 999,
        "meta_rev_at_epoch": 4,
        "meta_bstar": 3.434713e-06,
        "meta_mean_motion_dot": -1.52e-06,
        "meta_mean_motion_ddot": 0,
        "tle_line1": "1 67059U 25295A   25346.21281652 -.00000152  00000+0  34347-5 0  9991",
        "tle_line2": "2 67059  50.0035  14.4753 0013628 247.7813 112.1656 14.25879966    41"
      },
      "geometry": {
        "type": "Point",
        "coordinates": [
          -172.04658043934649,
          0.5382262580087075
        ]
      }
    },
    {
      "type": "Feature",
      "properties": {
        "norad_id": 67060,
        "name": "HULIANWANG DIGUI 16B",
        "group": "last-30-days",
        "lat": -0.12113408600609185,
        "lon": -171.49249600991143,
        "alt_km": 802.2362910424026,
        "timestamp": "2025-12-13T15:35:10.879455+00:00",
        "meta_object_name": "HULIANWANG DIGUI 16B",
        "meta_object_id": "2025-295B",
        "meta_epoch": "2025-12-12T05:06:25.468992",
        "meta_mean_motion": 14.26022254,
        "meta_eccentricity": 0.0013423,
        "meta_inclination": 50.0012,
        "meta_ra_of_asc_node": 14.4776,
        "meta_arg_of_pericenter": 244.6732,
        "meta_mean_anomaly": 115.2792,
        "meta_ephemeris_type": 0,
        "meta_classification_type": "U",
        "meta_norad_cat_id": 67060,
        "meta_element_set_no": 999,
        "meta_rev_at_epoch": 4,
        "meta_bstar": 4.398892e-06,
        "meta_mean_motion_dot": -1.5e-06,
        "meta_mean_motion_ddot": 0,
        "tle_line1": "1 67060U 25295B   25346.21279478 -.00000150  00000+0  43989-5 0  9996",
        "tle_line2": "2 67060  50.0012  14.4776 0013423 244.6732 115.2792 14.26022254    48"
      },
      "geometry": {
        "type": "Point",
        "coordinates": [
          -171.49249600991143,
          -0.12113408600609185
        ]
      }
    },
    {
      "type": "Feature",
      "properties": {
        "norad_id": 67062,
        "name": "HULIANWANG DIGUI 16D",
        "group": "last-30-days",
        "lat": 0.24659302067164543,
        "lon": -171.80420448544808,
        "alt_km": 803.827830512425,
        "timestamp": "2025-12-13T15:35:10.879465+00:00",
        "meta_object_name": "HULIANWANG DIGUI 16D",
        "meta_object_id": "2025-295D",
        "meta_epoch": "2025-12-12T05:06:24.477120",
        "meta_mean_motion": 14.25916921,
        "meta_eccentricity": 0.00124974,
        "meta_inclination": 50.0052,
        "meta_ra_of_asc_node": 14.4731,
        "meta_arg_of_pericenter": 251.2247,
        "meta_mean_anomaly": 108.7311,
        "meta_ephemeris_type": 0,
        "meta_classification_type": "U",
        "meta_norad_cat_id": 67062,
        "meta_element_set_no": 999,
        "meta_rev_at_epoch": 4,
        "meta_bstar": 3.753899e-06,
        "meta_mean_motion_dot": -1.51e-06,
        "meta_mean_motion_ddot": 0,
        "tle_line1": "1 67062U 25295D   25346.21278330 -.00000151  00000+0  37539-5 0  9999",
        "tle_line2": "2 67062  50.0052  14.4731 0012497 251.2247 108.7311 14.25916921    46"
      },
      "geometry": {
        "type": "Point",
        "coordinates": [
          -171.80420448544808,
          0.24659302067164543
        ]
      }
    },
    {
      "type": "Feature",
      "properties": {
        "norad_id": 67064,
        "name": "HULIANWANG DIGUI 16F",
        "group": "last-30-days",
        "lat": -3.944102618784034,
        "lon": -168.30307060533045,
        "alt_km": 798.8885249257237,
        "timestamp": "2025-12-13T15:35:10.879474+00:00",
        "meta_object_name": "HULIANWANG DIGUI 16F",
        "meta_object_id": "2025-295F",
        "meta_epoch": "2025-12-12T05:06:22.414752",
        "meta_mean_motion": 14.26957674,
        "meta_eccentricity": 0.00149026,
        "meta_inclination": 50.0027,
        "meta_ra_of_asc_node": 14.4596,
        "meta_arg_of_pericenter": 247.8107,
        "meta_mean_anomaly": 112.1227,
        "meta_ephemeris_type": 0,
        "meta_classification_type": "U",
        "meta_norad_cat_id": 67064,
        "meta_element_set_no": 999,
        "meta_rev_at_epoch": 4,
        "meta_bstar": 2.6251967e-05,
        "meta_mean_motion_dot": -9.6e-07,
        "meta_mean_motion_ddot": 0,
        "tle_line1": "1 67064U 25295F   25346.21275943 -.00000096  00000+0  26252-4 0  9995",
        "tle_line2": "2 67064  50.0027  14.4596 0014902 247.8107 112.1227 14.26957674    44"
      },
      "geometry": {
        "type": "Point",
        "coordinates": [
          -168.30307060533045,
          -3.944102618784034
        ]
      }
    }
  ]
}